OBJECT_NAME,OBJECT_ID,EPOCH,MEAN_MOTION,ECCENTRICITY,INCLINATION,RA_OF_ASC_NODE,ARG_OF_PERICENTER,MEAN_ANOMALY,EPHEMERIS_TYPE,CLASSIFICATION_TYPE,NORAD_CAT_ID,ELEMENT_SET_NO,REV_AT_EPOCH,BSTAR,MEAN_MOTION_DOT,MEAN_MOTION_DDOT
PERSEUS-M1,2014-033AF,2026-06-04T01:21:56.180736,14.95587199,.00110683,97.9641,98.9742,349.8422,10.2573,0,U,40039,999,64867,.24106212E-3,.2617E-4,0
POLYITAN-1,2014-033AJ,2026-06-03T23:56:55.767552,15.32773760,.00075376,98.0949,180.0160,180.7308,179.3922,0,U,40042,999,65157,.63302459E-3,.19995E-3,0
TIGRISAT,2014-033AK,2026-06-03T23:27:51.808608,14.85106187,.0050618,97.7821,305.2937,117.3579,243.2801,0,U,40043,999,64366,.31399118E-3,.2692E-4,0
AEROCUBE 6A,2014-033AM,2026-06-03T22:21:35.646048,14.97953444,.0039359,97.7216,322.0234,61.3448,299.1723,0,U,40045,999,64463,.53535E-3,.6356E-4,0
AEROCUBE 6B,2014-033AN,2026-06-04T01:55:45.359040,14.99411061,.00392524,97.7216,321.9304,53.3146,307.1674,0,U,40046,999,64479,.6027128E-3,.7443E-4,0
CANX-4,2014-034C,2026-06-03T15:24:01.164096,14.81238223,.0013938,98.3136,29.4566,57.9820,302.2744,0,U,40055,999,64252,.15162E-3,.1125E-4,0
CANX-5,2014-034D,2026-06-04T02:42:54.138240,14.81257124,.00139237,98.3139,29.9882,56.6569,303.5973,0,U,40056,999,63340,.16549745E-3,.1234E-4,0
UKUBE-1,2014-037F,2026-06-03T13:09:49.703616,15.13321645,.00016466,98.4235,156.3901,150.7111,209.4210,0,U,40074,999,64649,.57522925E-3,.10176E-3,0
BRITE-PL2 (HEWELIUSZ),2014-049B,2026-06-03T07:31:39.473184,14.94537783,.00148153,97.9084,266.2083,151.1613,209.0429,0,U,40119,999,63937,.2460017E-3,.2604E-4,0
AEROCUBE 5C,2015-058B,2026-06-04T00:40:35.260896,14.91385374,.01302825,64.7685,303.5247,68.4293,293.0644,0,U,40965,999,36369,.28310395E-3,.3158E-4,0
AEROCUBE 7,2015-058C,2026-06-03T19:04:08.618880,14.95631029,.01200134,64.7636,286.7614,67.0259,294.3464,0,U,40966,999,36395,.35185006E-3,.4353E-4,0
FOX-1A (AO-85),2015-058D,2026-06-04T01:42:57.366720,14.90899033,.01297684,64.7763,319.7410,61.7322,299.6816,0,U,40967,999,11161,.29843632E-3,.329E-4,0
SINOD-D 1,2015-058E,2026-06-03T15:22:09.148224,14.95808519,.0118307,64.7764,301.3323,58.5158,302.7453,0,U,40968,999,11463,.35119E-3,.4348E-4,0
SNAP-3 ALICE,2015-058G,2026-06-04T02:01:06.826656,15.57031907,.00319258,64.7498,149.1214,19.0805,341.1527,0,U,40970,999,11484,.16361371E-2,.123448E-2,0
LMRST-SAT,2015-058H,2026-06-03T19:43:57.258336,14.90521737,.01314504,64.7769,316.8280,63.8638,297.5928,0,U,40971,999,11156,.29921692E-3,.3279E-4,0
SNAP-3 EDDIE,2015-058J,2026-06-04T02:01:23.799072,15.58233279,.00316864,64.7420,139.9394,23.1036,337.1526,0,U,40972,999,11698,.15924486E-2,.125715E-2,0
PROPCUBE 3,2015-058K,2026-06-03T13:20:26.936448,14.94172395,.01234622,64.7695,295.1216,65.3437,296.0475,0,U,40973,999,11276,.32910668E-3,.3931E-4,0
BISONSAT,2015-058L,2026-06-03T12:14:51.019872,15.15903390,.0078228,64.7588,217.8525,52.8809,307.9429,0,U,40974,999,11354,.52055065E-3,.10633E-3,0
SNAP-3 JIMI,2015-058M,2026-06-02T16:14:15.808704,15.02157822,.01055494,64.7660,265.6777,61.3394,299.8287,0,U,40975,999,11204,.40230601E-3,.5808E-4,0
PROPCUBE 1 (FLORA),2015-058N,2026-06-03T15:07:56.902944,14.89150106,.0130197,64.7756,337.2500,66.2388,295.2315,0,U,40976,999,11424,.31462E-3,.3319E-4,0
SINOD-D 3,2015-058P,2026-06-03T15:39:13.757184,14.93920037,.01187058,64.7737,318.0812,63.5404,297.7829,0,U,40977,999,11273,.37754183E-3,.4454E-4,0
HORYU-4,2016-012D,2026-06-01T10:26:11.976576,15.85409012,.00022929,30.9850,193.7734,171.6706,188.3991,0,U,41340,999,56830,.10080768E-2,.260233E-2,0
RAVAN,2016-067B,2026-06-04T07:04:10.204320,15.53401018,.00062254,97.9900,43.3893,65.8801,294.3101,0,U,41849,999,52569,.8752871E-3,.55614E-3,0
CELTEE 1,2016-067C,2026-06-03T13:50:24.892800,15.19540482,.00006371,98.0684,20.2158,73.6065,286.5238,0,U,41850,999,52381,.30174042E-3,.6337E-4,0
OPTICUBE 04,2016-067D,2026-06-03T13:22:48.528768,15.09597028,.00161191,98.0706,6.1301,158.9050,201.2846,0,U,41851,999,52311,.14406702E-3,.225E-4,0
AEROCUBE 8D,2016-067E,2026-06-03T13:36:30.844224,15.24196511,.00038089,98.0693,23.7032,159.1321,201.0071,0,U,41852,999,52399,.3516622E-3,.8491E-4,0
AEROCUBE 8C,2016-067F,2026-06-04T02:51:50.149152,15.24450194,.000676,98.0566,21.5419,103.7079,256.4909,0,U,41853,999,52407,.36698624E-3,.8936E-4,0
CORVUS BC2,2017-042X,2026-06-03T23:23:52.420128,15.06210425,.00139605,97.4065,316.8404,150.8066,209.3945,0,U,42846,999,48507,.25689454E-3,.3714E-4,0
CORVUS BC1,2017-042Y,2026-06-04T05:40:52.398912,15.06382475,.00133765,97.4094,317.8976,128.2969,231.9464,0,U,42847,999,48514,.26309637E-3,.3822E-4,0
MAKERSAT 0,2017-073D,2026-06-03T14:13:50.381472,15.31566895,.01068633,97.4651,37.0098,322.1681,37.2082,0,U,43016,999,46438,.66960801E-3,.24382E-3,0
